TRANSPORTER-15Z         
1 66689U 25276Z   25361.18322217  .00006697  00000+0  33997-3 0  9991
2 66689  97.4407  72.6913 0001438 231.4612 128.6493 15.17232602  4311
TRANSPORTER-15AA        
1 66690U 25276AA  25361.25296275  .00009889  00000+0  50178-3 0  9991
2 66690  97.4386  72.7420 0003774 225.7475 134.3449 15.17115545  4323
TRANSPORTER-15AB        
1 66691U 25276AB  25361.25020980  .00011941  00000+0  60029-3 0  9998
2 66691  97.4411  72.7542 0003894 228.9845 131.1053 15.17393289  4326
TRANSPORTER-15AC        
1 66692U 25276AC  25361.24683080  .00006862  00000+0  34598-3 0  9992
2 66692  97.4412  72.7624 0001868 240.7792 119.3255 15.17463487  4321
TRANSPORTER-15AD        
1 66693U 25276AD  25361.24620009  .00015812  00000+0  78546-3 0  9991
2 66693  97.4366  72.7414 0003306 253.7076 106.3794 15.17746789  4328
YAM-9                   
1 66694U 25276AE  25361.24464063  .00011249  00000+0  56188-3 0  9996
2 66694  97.4412  72.7604 0001610 231.5124 128.5966 15.17638994  4321
IRIDE FM1               
1 66695U 25276AF  25361.16618477  .00027776  00000+0  13520-2 0  9992
2 66695  97.4402  72.7092 0002185 144.0483 216.0899 15.18339535  4313
IRIDE FM2               
1 66696U 25276AG  25361.24753195  .00009412  00000+0  47296-3 0  9994
2 66696  97.4382  72.7462 0002564 244.4265 115.6704 15.17473809  4328
IRIDE FM3               
1 66697U 25276AH  25361.23352683  .00010847  00000+0  53281-3 0  9996
2 66697  97.4380  72.7651 0001551 148.6077 211.5250 15.18234848  4329
IRIDE FM4               
1 66698U 25276AJ  25361.25002315 -.00020329  00000+0 -10170-2 0  9990
2 66698  97.4381  72.7477 0002887 236.4236 131.2920 15.17415390  1302
IRIDE FM5               
1 66699U 25276AK  25361.18233603  .00005107  00000+0  25855-3 0  9991
2 66699  97.4398  72.6864 0003212 235.7950 124.2979 15.17441355  4318
IRIDE FM6               
1 66700U 25276AL  25361.23274129  .00009821  00000+0  48193-3 0  9995
2 66700  97.4414  72.7783 0002137 151.2447 208.8905 15.18295656  4320
