CCSDS_OMM_VERS = 2.0
CREATION_DATE  = 
ORIGINATOR     = 

OBJECT_NAME    = TRANSPORTER-15Z
OBJECT_ID      = 2025-276Z
CENTER_NAME    = EARTH
REF_FRAME      = TEME
TIME_SYSTEM    = UTC
MEAN_ELEMENT_THEORY = SGP/SGP4

EPOCH          = 2025-12-27T04:23:50.395488
MEAN_MOTION    = 15.17232602
ECCENTRICITY   = .00014389
INCLINATION    = 97.4407
RA_OF_ASC_NODE = 72.6913
ARG_OF_PERICENTER = 231.4612
MEAN_ANOMALY   = 128.6493

EPHEMERIS_TYPE = 0
CLASSIFICATION_TYPE = U
NORAD_CAT_ID   = 66689
ELEMENT_SET_NO = 999
REV_AT_EPOCH   = 431
BSTAR          = .33996545E-3
MEAN_MOTION_DOT = .6697E-4
MEAN_MOTION_DDOT = 0

CCSDS_OMM_VERS = 2.0
CREATION_DATE  = 
ORIGINATOR     = 

OBJECT_NAME    = TRANSPORTER-15AA
OBJECT_ID      = 2025-276AA
CENTER_NAME    = EARTH
REF_FRAME      = TEME
TIME_SYSTEM    = UTC
MEAN_ELEMENT_THEORY = SGP/SGP4

EPOCH          = 2025-12-27T06:04:15.981600
MEAN_MOTION    = 15.17115545
ECCENTRICITY   = .00037747
INCLINATION    = 97.4386
RA_OF_ASC_NODE = 72.7420
ARG_OF_PERICENTER = 225.7475
MEAN_ANOMALY   = 134.3449

EPHEMERIS_TYPE = 0
CLASSIFICATION_TYPE = U
NORAD_CAT_ID   = 66690
ELEMENT_SET_NO = 999
REV_AT_EPOCH   = 432
BSTAR          = .50178123E-3
MEAN_MOTION_DOT = .9889E-4
MEAN_MOTION_DDOT = 0

CCSDS_OMM_VERS = 2.0
CREATION_DATE  = 
ORIGINATOR     = 

OBJECT_NAME    = TRANSPORTER-15AB
OBJECT_ID      = 2025-276AB
CENTER_NAME    = EARTH
REF_FRAME      = TEME
TIME_SYSTEM    = UTC
MEAN_ELEMENT_THEORY = SGP/SGP4

EPOCH          = 2025-12-27T06:00:18.126720
MEAN_MOTION    = 15.17393289
ECCENTRICITY   = .00038949
INCLINATION    = 97.4411
RA_OF_ASC_NODE = 72.7542
ARG_OF_PERICENTER = 228.9845
MEAN_ANOMALY   = 131.1053

EPHEMERIS_TYPE = 0
CLASSIFICATION_TYPE = U
NORAD_CAT_ID   = 66691
ELEMENT_SET_NO = 999
REV_AT_EPOCH   = 432
BSTAR          = .60029061E-3
MEAN_MOTION_DOT = .11941E-3
MEAN_MOTION_DDOT = 0

CCSDS_OMM_VERS = 2.0
CREATION_DATE  = 
ORIGINATOR     = 

OBJECT_NAME    = TRANSPORTER-15AC
OBJECT_ID      = 2025-276AC
CENTER_NAME    = EARTH
REF_FRAME      = TEME
TIME_SYSTEM    = UTC
MEAN_ELEMENT_THEORY = SGP/SGP4

EPOCH          = 2025-12-27T05:55:26.181120
MEAN_MOTION    = 15.17463487
ECCENTRICITY   = .00018683
INCLINATION    = 97.4412
RA_OF_ASC_NODE = 72.7624
ARG_OF_PERICENTER = 240.7792
MEAN_ANOMALY   = 119.3255

EPHEMERIS_TYPE = 0
CLASSIFICATION_TYPE = U
NORAD_CAT_ID   = 66692
ELEMENT_SET_NO = 999
REV_AT_EPOCH   = 432
BSTAR          = .34597863E-3
MEAN_MOTION_DOT = .6862E-4
MEAN_MOTION_DDOT = 0

CCSDS_OMM_VERS = 2.0
CREATION_DATE  = 
ORIGINATOR     = 

OBJECT_NAME    = TRANSPORTER-15AD
OBJECT_ID      = 2025-276AD
CENTER_NAME    = EARTH
REF_FRAME      = TEME
TIME_SYSTEM    = UTC
MEAN_ELEMENT_THEORY = SGP/SGP4

EPOCH          = 2025-12-27T05:54:31.687776
MEAN_MOTION    = 15.17746789
ECCENTRICITY   = .00033068
INCLINATION    = 97.4366
RA_OF_ASC_NODE = 72.7414
ARG_OF_PERICENTER = 253.7076
MEAN_ANOMALY   = 106.3794

EPHEMERIS_TYPE = 0
CLASSIFICATION_TYPE = U
NORAD_CAT_ID   = 66693
ELEMENT_SET_NO = 999
REV_AT_EPOCH   = 432
BSTAR          = .78545696E-3
MEAN_MOTION_DOT = .15812E-3
MEAN_MOTION_DDOT = 0

CCSDS_OMM_VERS = 2.0
CREATION_DATE  = 
ORIGINATOR     = 

OBJECT_NAME    = YAM-9
OBJECT_ID      = 2025-276AE
CENTER_NAME    = EARTH
REF_FRAME      = TEME
TIME_SYSTEM    = UTC
MEAN_ELEMENT_THEORY = SGP/SGP4

EPOCH          = 2025-12-27T05:52:16.950432
MEAN_MOTION    = 15.17638994
ECCENTRICITY   = .00016102
INCLINATION    = 97.4412
RA_OF_ASC_NODE = 72.7604
ARG_OF_PERICENTER = 231.5124
MEAN_ANOMALY   = 128.5966

EPHEMERIS_TYPE = 0
CLASSIFICATION_TYPE = U
NORAD_CAT_ID   = 66694
ELEMENT_SET_NO = 999
REV_AT_EPOCH   = 432
BSTAR          = .56188183E-3
MEAN_MOTION_DOT = .11249E-3
MEAN_MOTION_DDOT = 0

CCSDS_OMM_VERS = 2.0
CREATION_DATE  = 
ORIGINATOR     = 

OBJECT_NAME    = IRIDE FM1
OBJECT_ID      = 2025-276AF
CENTER_NAME    = EARTH
REF_FRAME      = TEME
TIME_SYSTEM    = UTC
MEAN_ELEMENT_THEORY = SGP/SGP4

EPOCH          = 2025-12-27T03:59:18.364128
MEAN_MOTION    = 15.18339535
ECCENTRICITY   = .00021852
INCLINATION    = 97.4402
RA_OF_ASC_NODE = 72.7092
ARG_OF_PERICENTER = 144.0483
MEAN_ANOMALY   = 216.0899

EPHEMERIS_TYPE = 0
CLASSIFICATION_TYPE = U
NORAD_CAT_ID   = 66695
ELEMENT_SET_NO = 999
REV_AT_EPOCH   = 431
BSTAR          = .13520381E-2
MEAN_MOTION_DOT = .27776E-3
MEAN_MOTION_DDOT = 0

CCSDS_OMM_VERS = 2.0
CREATION_DATE  = 
ORIGINATOR     = 

OBJECT_NAME    = IRIDE FM2
OBJECT_ID      = 2025-276AG
CENTER_NAME    = EARTH
REF_FRAME      = TEME
TIME_SYSTEM    = UTC
MEAN_ELEMENT_THEORY = SGP/SGP4

EPOCH          = 2025-12-27T05:56:26.760480
MEAN_MOTION    = 15.17473809
ECCENTRICITY   = .00025641
INCLINATION    = 97.4382
RA_OF_ASC_NODE = 72.7462
ARG_OF_PERICENTER = 244.4265
MEAN_ANOMALY   = 115.6704

EPHEMERIS_TYPE = 0
CLASSIFICATION_TYPE = U
NORAD_CAT_ID   = 66696
ELEMENT_SET_NO = 999
REV_AT_EPOCH   = 432
BSTAR          = .47296289E-3
MEAN_MOTION_DOT = .9412E-4
MEAN_MOTION_DDOT = 0

CCSDS_OMM_VERS = 2.0
CREATION_DATE  = 
ORIGINATOR     = 

OBJECT_NAME    = IRIDE FM3
OBJECT_ID      = 2025-276AH
CENTER_NAME    = EARTH
REF_FRAME      = TEME
TIME_SYSTEM    = UTC
MEAN_ELEMENT_THEORY = SGP/SGP4

EPOCH          = 2025-12-27T05:36:16.718112
MEAN_MOTION    = 15.18234848
ECCENTRICITY   = .00015512
INCLINATION    = 97.4380
RA_OF_ASC_NODE = 72.7651
ARG_OF_PERICENTER = 148.6077
MEAN_ANOMALY   = 211.5250

EPHEMERIS_TYPE = 0
CLASSIFICATION_TYPE = U
NORAD_CAT_ID   = 66697
ELEMENT_SET_NO = 999
REV_AT_EPOCH   = 432
BSTAR          = .53280587E-3
MEAN_MOTION_DOT = .10847E-3
MEAN_MOTION_DDOT = 0

CCSDS_OMM_VERS = 2.0
CREATION_DATE  = 
ORIGINATOR     = 

OBJECT_NAME    = IRIDE FM4
OBJECT_ID      = 2025-276AJ
CENTER_NAME    = EARTH
REF_FRAME      = TEME
TIME_SYSTEM    = UTC
MEAN_ELEMENT_THEORY = SGP/SGP4

EPOCH          = 2025-12-27T06:00:02.000160
MEAN_MOTION    = 15.17415390
ECCENTRICITY   = .00028877
INCLINATION    = 97.4381
RA_OF_ASC_NODE = 72.7477
ARG_OF_PERICENTER = 236.4236
MEAN_ANOMALY   = 131.2920

EPHEMERIS_TYPE = 0
CLASSIFICATION_TYPE = U
NORAD_CAT_ID   = 66698
ELEMENT_SET_NO = 999
REV_AT_EPOCH   = 130
BSTAR          = -.10169687E-2
MEAN_MOTION_DOT = -.20329E-3
MEAN_MOTION_DDOT = 0

CCSDS_OMM_VERS = 2.0
CREATION_DATE  = 
ORIGINATOR     = 

OBJECT_NAME    = IRIDE FM5
OBJECT_ID      = 2025-276AK
CENTER_NAME    = EARTH
REF_FRAME      = TEME
TIME_SYSTEM    = UTC
MEAN_ELEMENT_THEORY = SGP/SGP4

EPOCH          = 2025-12-27T04:22:33.832992
MEAN_MOTION    = 15.17441355
ECCENTRICITY   = .00032121
INCLINATION    = 97.4398
RA_OF_ASC_NODE = 72.6864
ARG_OF_PERICENTER = 235.7950
MEAN_ANOMALY   = 124.2979

EPHEMERIS_TYPE = 0
CLASSIFICATION_TYPE = U
NORAD_CAT_ID   = 66699
ELEMENT_SET_NO = 999
REV_AT_EPOCH   = 431
BSTAR          = .25855236E-3
MEAN_MOTION_DOT = .5107E-4
MEAN_MOTION_DDOT = 0

CCSDS_OMM_VERS = 2.0
CREATION_DATE  = 
ORIGINATOR     = 

OBJECT_NAME    = IRIDE FM6
OBJECT_ID      = 2025-276AL
CENTER_NAME    = EARTH
REF_FRAME      = TEME
TIME_SYSTEM    = UTC
MEAN_ELEMENT_THEORY = SGP/SGP4

EPOCH          = 2025-12-27T05:35:08.847456
MEAN_MOTION    = 15.18295656
ECCENTRICITY   = .00021374
INCLINATION    = 97.4414
RA_OF_ASC_NODE = 72.7783
ARG_OF_PERICENTER = 151.2447
MEAN_ANOMALY   = 208.8905

EPHEMERIS_TYPE = 0
CLASSIFICATION_TYPE = U
NORAD_CAT_ID   = 66700
ELEMENT_SET_NO = 999
REV_AT_EPOCH   = 432
BSTAR          = .48192881E-3
MEAN_MOTION_DOT = .9821E-4
MEAN_MOTION_DDOT = 0

